[{"OBJECT_NAME":"STARLINK-34256","OBJECT_ID":"2025-119S","EPOCH":"2026-03-09T01:11:13.650720","MEAN_MOTION":15.2758916,"ECCENTRICITY":0.00021924,"INCLINATION":43.0035,"RA_OF_ASC_NODE":310.4731,"ARG_OF_PERICENTER":269.1692,"MEAN_ANOMALY":90.8908,"EPHEMERIS_TYPE":0,"CLASSIFICATION_TYPE":"U","NORAD_CAT_ID":64249,"ELEMENT_SET_NO":999,"REV_AT_EPOCH":4407,"BSTAR":0.0010672038,"MEAN_MOTION_DOT":0.0002923,"MEAN_MOTION_DDOT":0},{"OBJECT_NAME":"COSMOS 2251 DEB","OBJECT_ID":"1993-036AWN","EPOCH":"2026-03-09T06:26:08.321568","MEAN_MOTION":15.11257706,"ECCENTRICITY":0.00842289,"INCLINATION":74.0116,"RA_OF_ASC_NODE":284.5024,"ARG_OF_PERICENTER":350.308,"MEAN_ANOMALY":9.6482,"EPHEMERIS_TYPE":0,"CLASSIFICATION_TYPE":"U","NORAD_CAT_ID":35996,"ELEMENT_SET_NO":999,"REV_AT_EPOCH":73632,"BSTAR":0.00055219842,"MEAN_MOTION_DOT":0.00010085,"MEAN_MOTION_DDOT":0}]
